stk.v.4.3

BEGIN Ephemeris

NumberOfEphemerisPoints   1004

ScenarioEpoch           27 Apr 2018 23:11:30.836896
InterpolationMethod     Lagrange
InterpolationOrder      7
CentralBody             Earth
CoordinateSystem        Fixed
DistanceUnit     Kilometers

EphemerisTimePosVel

12120.0 10000.2538807 16186.2939647 -19049.95022 -2.29795808285 -0.369461853196 -1.54078966365 
12180.0 9850.97410603 16166.3437024 -19145.6772822 -2.31058695392 -0.364417772675 -1.51636846605 
12240.0 9700.90122585 16146.6693369 -19239.8774643 -2.32302858502 -0.359242617289 -1.49182657493 
12300.0 9550.04732004 16127.2786811 -19332.5428711 -2.3352811149 -0.353938363771 -1.46716593009 
12360.0 9398.42458941 16108.1794298 -19423.665737 -2.34734271066 -0.348507012977 -1.44238848078 
12420.0 9246.04535381 16089.3791585 -19513.2384271 -2.35921156804 -0.342950589522 -1.41749618549 
12480.0 9092.92205022 16070.885322 -19601.2534378 -2.37088591175 -0.337271141391 -1.39249101181 
12540.0 8939.06723077 16052.7052527 -19687.7033973 -2.38236399579 -0.331470739565 -1.36737493628 
12600.0 8784.49356082 16034.8461592 -19772.5810668 -2.39364410373 -0.325551477625 -1.34214994422 
12660.0 8629.21381697 16017.315125 -19855.8793407 -2.40472454902 -0.319515471364 -1.31681802959 
12720.0 8473.24088504 16000.1191071 -19937.5912477 -2.41560367528 -0.313364858394 -1.29138119482 
12780.0 8316.58775809 15983.2649342 -20017.7099512 -2.4262798566 -0.30710179774 -1.26584145065 
12840.0 8159.26753432 15966.759306 -20096.2287501 -2.43675149781 -0.300728469442 -1.24020081598 
12900.0 8001.29341504 15950.6087914 -20173.1410794 -2.44701703476 -0.294247074145 -1.2144613177 
12960.0 7842.6787026 15934.8198273 -20248.4405109 -2.45707493458 -0.287659832687 -1.18862499054 
13020.0 7683.43679825 15919.3987174 -20322.1207539 -2.46692369598 -0.280968985687 -1.16269387689 
13080.0 7523.58120004 15904.3516312 -20394.1756556 -2.47656184948 -0.274176793122 -1.13667002666 
13140.0 7363.12550067 15889.684602 -20464.5992018 -2.48598795768 -0.26728553391 -1.11055549709 
13200.0 7202.08338536 15875.4035265 -20533.3855175 -2.49520061551 -0.260297505481 -1.08435235264 
13260.0 7040.46862963 15861.5141634 -20600.5288674 -2.50419845044 -0.253215023348 -1.05806266475 
13320.0 6878.29509714 15848.022132 -20666.0236566 -2.51298012279 -0.246040420677 -1.03168851174 
13380.0 6715.57673747 15834.9329115 -20729.864431 -2.52154432589 -0.238776047852 -1.00523197862 
13440.0 6552.32758389 15822.2518394 -20792.0458779 -2.52988978636 -0.231424272032 -0.978695156906 
13500.0 6388.56175113 15809.9841111 -20852.5628264 -2.53801526428 -0.223987476715 -0.952080144493 
13560.0 6224.2934331 15798.1347783 -20911.410248 -2.54591955346 -0.216468061288 -0.925389045462 
13620.0 6059.53690065 15786.7087483 -20968.583257 -2.5536014816 -0.208868440585 -0.898623969918 
13680.0 5894.30649924 15775.7107828 -21024.0771113 -2.56105991054 -0.201191044433 -0.871787033826 
13740.0 5728.6166467 15765.1454974 -21077.8872122 -2.56829373641 -0.1934383172 -0.84488035884 
13800.0 5562.48183084 15755.0173602 -21130.0091053 -2.57530188986 -0.185612717339 -0.817906072137 
13860.0 5395.91660719 15745.3306912 -21180.438481 -2.58208333622 -0.17771671693 -0.790866306244 
13920.0 5228.9355966 15736.0896612 -21229.1711744 -2.5886370757 -0.169752801222 -0.763763198873 
13980.0 5061.55348296 15727.2982915 -21276.2031664 -2.59496214352 -0.161723468165 -0.736598892751 
14040.0 4893.78501075 15718.9604524 -21321.5305834 -2.60105761015 -0.153631227948 -0.709375535444 
14100.0 4725.64498272 15711.079863 -21365.149698 -2.60692258139 -0.14547860253 -0.682095279195 
14160.0 4557.14825752 15703.6600902 -21407.0569293 -2.61255619859 -0.137268125173 -0.654760280746 
14220.0 4388.30974721 15696.7045482 -21447.2488432 -2.61795763876 -0.129002339965 -0.627372701172 
14280.0 4219.14441498 15690.2164973 -21485.7221529 -2.62312611471 -0.120683801351 -0.599934705705 
14340.0 4049.66727262 15684.1990442 -21522.4737186 -2.62806087521 -0.112315073658 -0.572448463565 
14400.0 3879.89337817 15678.6551405 -21557.5005487 -2.63276120511 -0.103898730612 -0.544916147786 
14460.0 3709.83783345 15673.5875826 -21590.7997993 -2.63722642545 -0.0954373548654 -0.517339935043 
14520.0 3539.51578162 15668.9990109 -21622.3687746 -2.64145589357 -0.0869335375119 -0.489722005483 
14580.0 3368.94240475 15664.8919095 -21652.2049275 -2.64544900327 -0.078389877607 -0.462064542547 
14640.0 3198.13292134 15661.2686058 -21680.3058595 -2.64920518485 -0.0698089816831 -0.434369732799 
14700.0 3027.10258388 15658.1312696 -21706.6693208 -2.65272390525 -0.0611934632653 -0.406639765752 
14760.0 2855.86667636 15655.4819131 -21731.2932108 -2.65600466811 -0.0525459423849 -0.378876833694 
14820.0 2684.44051182 15653.3223903 -21754.1755783 -2.65904701389 -0.0438690450923 -0.351083131513 
14880.0 2512.83942983 15651.6543968 -21775.314621 -2.6618505199 -0.0351654029688 -0.323260856525 
14940.0 2341.07879405 15650.4794694 -21794.7086867 -2.66441480044 -0.0264376526369 -0.295412208298 
15000.0 2169.17398973 15649.7989857 -21812.3562723 -2.66673950677 -0.0176884352705 -0.267539388477 
15060.0 1997.14042119 15649.6141641 -21828.2560249 -2.66882432726 -0.00892039610389 -0.239644600609 
15120.0 1824.99350938 15649.9260631 -21842.4067411 -2.67066898739 -0.000136183940028 -0.21173004997 
15180.0 1652.74868932 15650.7355818 -21854.8073677 -2.6722732498 0.00866154934181 -0.183797943386 
15240.0 1480.42140765 15652.0434591 -21865.4570012 -2.67363691435 0.0174701492786 -0.155850489063 
15300.0 1308.02712012 15653.8502739 -21874.3548885 -2.67475981812 0.0262869593171 -0.127889896407 
15360.0 1135.58128906 15656.1564448 -21881.5004261 -2.67564183547 0.0351093213069 -0.0999183758517 
15420.0 963.09938091 15658.9622303 -21886.8931608 -2.67628287803 0.0439345759947 -0.0719381386812 
15480.0 790.596863711 15662.2677286 -21890.5327897 -2.67668289472 0.0527600635178 -0.043951396855 
15540.0 618.089204595 15666.0728773 -21892.4191594 -2.67684187176 0.0615831238985 -0.0159603628324 
15600.0 445.591867287 15670.3774542 -21892.552267 -2.67675983269 0.0704010975374 0.0120327506029 
15660.0 273.120309612 15675.1810766 -21890.9322593 -2.6764368383 0.079211325708 0.0400257305189 
15720.0 100.689980992 15680.4832016 -21887.559433 -2.67587298668 0.08801115105 0.0680163640103 
15780.0 -71.6836800469 15686.2831266 -21882.4342348 -2.67506841319 0.0967979180621 0.0960024383749 
15840.0 -243.985248366 15692.5799889 -21875.557261 -2.67402329038 0.105568973596 0.123981741289 
15900.0 -416.199314703 15699.3727662 -21866.9292574 -2.67273782801 0.114321667347 0.151952060981 
15960.0 -588.310488154 15706.6602768 -21856.5511194 -2.67121227301 0.123053352348 0.179911186412 
16020.0 -760.303398657 15714.4411799 -21844.4238918 -2.6694469094 0.131761385459 0.207856907445 
16080.0 -932.162699462 15722.7139756 -21830.5487684 -2.66744205825 0.140443127858 0.235787015023 
16140.0 -1103.87306961 15731.4770055 -21814.9270921 -2.66519807762 0.149095945532 0.263699301348 
16200.0 -1275.41921638 15740.7284531 -21797.5603546 -2.66271536252 0.157717209763 0.291591560048 
16260.0 -1446.78587776 15750.4663437 -21778.4501962 -2.65999434479 0.166304297615 0.319461586359 
16320.0 -1617.95782491 15760.6885454 -21757.5984055 -2.65703549305 0.174854592426 0.347307177297 
16380.0 -1788.91986456 15771.3927691 -21735.0069195 -2.65383931262 0.183365484287 0.375126131833 
16440.0 -1959.65684149 15782.5765694 -21710.6778227 -2.65040634539 0.191834370528 0.402916251067 
16500.0 -2130.15364095 15794.2373447 -21684.6133477 -2.64673716978 0.200258656203 0.430675338403 
16560.0 -2300.39519105 15806.3723377 -21656.815874 -2.64283240056 0.208635754567 0.458401199723 
16620.0 -2470.3664652 15818.9786364 -21627.2879284 -2.63869268883 0.216963087558 0.486091643563 
16680.0 -2640.05248451 15832.0531743 -21596.0321844 -2.63431872181 0.225238086274 0.513744481282 
16740.0 -2809.43832013 15845.5927312 -21563.051462 -2.62971122279 0.233458191451 0.541357527238 
16800.0 -2978.5090957 15859.5939339 -21528.3487272 -2.62487095094 0.241620853933 0.568928598964 
16860.0 -3147.24998968 15874.0532567 -21491.9270915 -2.61979870122 0.249723535149 0.596455517335 
16920.0 -3315.64623768 15888.9670221 -21453.7898122 -2.61449530422 0.257763707581 0.623936106746 
16980.0 -3483.68313486 15904.3314018 -21413.9402912 -2.60896162599 0.265738855231 0.651368195281 
17040.0 -3651.34603823 15920.1424174 -21372.3820751 -2.60319856791 0.273646474091 0.678749614887 
17100.0 -3818.62036897 15936.3959409 -21329.1188546 -2.59720706654 0.281484072604 0.706078201544 
17160.0 -3985.49161473 15953.087696 -21284.1544642 -2.59098809342 0.289249172123 0.733351795439 
17220.0 -4151.94533193 15970.2132586 -21237.4928817 -2.5845426549 0.296939307378 0.760568241132 
17280.0 -4317.96714804 15987.7680578 -21189.1382275 -2.57787179199 0.304552026924 0.787725387733 
17340.0 -4483.54276385 16005.7473768 -21139.0947647 -2.57097658013 0.312084893599 0.814821089067 
17400.0 -4648.65795569 16024.146354 -21087.3668979 -2.56385812906 0.319535484977 0.841853203847 
17460.0 -4813.29857768 16042.9599839 -21033.9591734 -2.55651758255 0.326901393811 0.868819595843 
17520.0 -4977.45056395 16062.1831179 -20978.8762781 -2.54895611824 0.334180228486 0.895718134049 
17580.0 -5141.09993083 16081.8104655 -20922.1230394 -2.54117494743 0.341369613455 0.922546692853 
17640.0 -5304.23277903 16101.8365954 -20863.7044244 -2.53317531486 0.348467189682 0.949303152207 
17700.0 -5466.83529583 16122.2559366 -20803.6255394 -2.52495849845 0.355470615079 0.97598539779 
17760.0 -5628.89375719 16143.0627795 -20741.8916295 -2.51652580915 0.36237756494 1.00259132118 
17820.0 -5790.39452991 16164.2512766 -20678.5080778 -2.50787859065 0.369185732368 1.02911882002 
17880.0 -5951.32407374 16185.8154446 -20613.4804049 -2.49901821914 0.375892828706 1.05556579817 
17940.0 -6111.66894346 16207.7491647 -20546.8142683 -2.48994610311 0.382496583957 1.08193016591 
18000.0 -6271.41579095 16230.0461843 -20478.5154617 -2.48066368305 0.388994747209 1.10820984007 
